{
  "type": "FeatureCollection",
  "features": [
    {
      "type": "Feature",
      "properties": {
        "norad_id": 44333,
        "name": "AT&T T-16",
        "group": "intelsat",
        "lat": -0.023388983932322423,
        "lon": -29.353346151307743,
        "alt_km": 35788.50471413172,
        "timestamp": "2025-12-08T23:34:03.637745+00:00",
        "meta_object_name": "AT&T T-16",
        "meta_object_id": "2019-034A",
        "meta_epoch": "2025-12-08T13:07:25.005216",
        "meta_mean_motion": 1.00273465,
        "meta_eccentricity": 7.821e-05,
        "meta_inclination": 0.0225,
        "meta_ra_of_asc_node": 59.1349,
        "meta_arg_of_pericenter": 120.069,
        "meta_mean_anomaly": 354.3499,
        "meta_ephemeris_type": 0,
        "meta_classification_type": "U",
        "meta_norad_cat_id": 44333,
        "meta_element_set_no": 999,
        "meta_rev_at_epoch": 2372,
        "meta_bstar": 0,
        "meta_mean_motion_dot": -1.13e-06,
        "meta_mean_motion_ddot": 0,
        "tle_line1": "1 44333U 19034A   25342.54681719 -.00000113  00000+0  00000+0 0  9995",
        "tle_line2": "2 44333   0.0225  59.1349 0000782 120.0690 354.3499  1.00273465 23723"
      },
      "geometry": {
        "type": "Point",
        "coordinates": [
          -29.353346151307743,
          -0.023388983932322423
        ]
      }
    },
    {
      "type": "Feature",
      "properties": {
        "norad_id": 44476,
        "name": "INTELSAT 39 (IS-39)",
        "group": "intelsat",
        "lat": 0.012378788633918749,
        "lon": 133.43232603641778,
        "alt_km": 35783.03132795273,
        "timestamp": "2025-12-08T23:34:03.637761+00:00",
        "meta_object_name": "INTELSAT 39 (IS-39)",
        "meta_object_id": "2019-049B",
        "meta_epoch": "2025-12-08T10:28:25.232160",
        "meta_mean_motion": 1.00270315,
        "meta_eccentricity": 8.757e-05,
        "meta_inclination": 0.0178,
        "meta_ra_of_asc_node": 326.9811,
        "meta_arg_of_pericenter": 187.7371,
        "meta_mean_anomaly": 141.7767,
        "meta_ephemeris_type": 0,
        "meta_classification_type": "U",
        "meta_norad_cat_id": 44476,
        "meta_element_set_no": 999,
        "meta_rev_at_epoch": 2321,
        "meta_bstar": 0,
        "meta_mean_motion_dot": 3.6e-07,
        "meta_mean_motion_ddot": 0,
        "tle_line1": "1 44476U 19049B   25342.43640315  .00000036  00000+0  00000+0 0  9997",
        "tle_line2": "2 44476   0.0178 326.9811 0000875 187.7371 141.7767  1.00270315 23217"
      },
      "geometry": {
        "type": "Point",
        "coordinates": [
          133.43232603641778,
          0.012378788633918749
        ]
      }
    },
    {
      "type": "Feature",
      "properties": {
        "norad_id": 46114,
        "name": "GALAXY 30 (G-30)",
        "group": "intelsat",
        "lat": -0.025635777053678564,
        "lon": -53.492491358185845,
        "alt_km": 35779.56113050231,
        "timestamp": "2025-12-08T23:34:03.637774+00:00",
        "meta_object_name": "GALAXY 30 (G-30)",
        "meta_object_id": "2020-056C",
        "meta_epoch": "2025-12-08T13:07:15.729312",
        "meta_mean_motion": 1.00271158,
        "meta_eccentricity": 0.00024175,
        "meta_inclination": 0.0164,
        "meta_ra_of_asc_node": 353.8278,
        "meta_arg_of_pericenter": 263.3172,
        "meta_mean_anomaly": 252.2177,
        "meta_ephemeris_type": 0,
        "meta_classification_type": "U",
        "meta_norad_cat_id": 46114,
        "meta_element_set_no": 999,
        "meta_rev_at_epoch": 1938,
        "meta_bstar": 0,
        "meta_mean_motion_dot": 3.9e-07,
        "meta_mean_motion_ddot": 0,
        "tle_line1": "1 46114U 20056C   25342.54670983  .00000039  00000+0  00000+0 0  9997",
        "tle_line2": "2 46114   0.0164 353.8278 0002417 263.3172 252.2177  1.00271158 19385"
      },
      "geometry": {
        "type": "Point",
        "coordinates": [
          -53.492491358185845,
          -0.025635777053678564
        ]
      }
    },
    {
      "type": "Feature",
      "properties": {
        "norad_id": 54026,
        "name": "GALAXY 33 (G-33)",
        "group": "intelsat",
        "lat": -0.010495770257627128,
        "lon": -61.488175554867205,
        "alt_km": 35779.67741872594,
        "timestamp": "2025-12-08T23:34:03.637786+00:00",
        "meta_object_name": "GALAXY 33 (G-33)",
        "meta_object_id": "2022-128A",
        "meta_epoch": "2025-12-08T12:03:30.605184",
        "meta_mean_motion": 1.0027166,
        "meta_eccentricity": 0.00022712,
        "meta_inclination": 0.0164,
        "meta_ra_of_asc_node": 301.4781,
        "meta_arg_of_pericenter": 308.6459,
        "meta_mean_anomaly": 235.2621,
        "meta_ephemeris_type": 0,
        "meta_classification_type": "U",
        "meta_norad_cat_id": 54026,
        "meta_element_set_no": 999,
        "meta_rev_at_epoch": 1183,
        "meta_bstar": 0,
        "meta_mean_motion_dot": 8.1e-07,
        "meta_mean_motion_ddot": 0,
        "tle_line1": "1 54026U 22128A   25342.50243756  .00000081  00000+0  00000+0 0  9997",
        "tle_line2": "2 54026   0.0164 301.4781 0002271 308.6459 235.2621  1.00271660 11838"
      },
      "geometry": {
        "type": "Point",
        "coordinates": [
          -61.488175554867205,
          -0.010495770257627128
        ]
      }
    },
    {
      "type": "Feature",
      "properties": {
        "norad_id": 54027,
        "name": "GALAXY 34 (G-34)",
        "group": "intelsat",
        "lat": -0.01791572628830207,
        "lon": -57.43173604055029,
        "alt_km": 35783.49209338459,
        "timestamp": "2025-12-08T23:34:03.637798+00:00",
        "meta_object_name": "GALAXY 34 (G-34)",
        "meta_object_id": "2022-128B",
        "meta_epoch": "2025-12-08T12:04:59.032992",
        "meta_mean_motion": 1.00270185,
        "meta_eccentricity": 0.00012919,
        "meta_inclination": 0.0269,
        "meta_ra_of_asc_node": 317.8338,
        "meta_arg_of_pericenter": 287.9468,
        "meta_mean_anomaly": 244.0411,
        "meta_ephemeris_type": 0,
        "meta_classification_type": "U",
        "meta_norad_cat_id": 54027,
        "meta_element_set_no": 999,
        "meta_rev_at_epoch": 1200,
        "meta_bstar": 0,
        "meta_mean_motion_dot": 0,
        "meta_mean_motion_ddot": 0,
        "tle_line1": "1 54027U 22128B   25342.50346103  .00000000  00000+0  00000+0 0  9999",
        "tle_line2": "2 54027   0.0269 317.8338 0001291 287.9468 244.0411  1.00270185 12000"
      },
      "geometry": {
        "type": "Point",
        "coordinates": [
          -57.43173604055029,
          -0.01791572628830207
        ]
      }
    },
    {
      "type": "Feature",
      "properties": {
        "norad_id": 54243,
        "name": "GALAXY 31 (G-31)",
        "group": "intelsat",
        "lat": 0.004600928936390412,
        "lon": -49.49213673922061,
        "alt_km": 35780.07579484183,
        "timestamp": "2025-12-08T23:34:03.637809+00:00",
        "meta_object_name": "GALAXY 31 (G-31)",
        "meta_object_id": "2022-153A",
        "meta_epoch": "2025-12-08T14:00:02.750688",
        "meta_mean_motion": 1.00271343,
        "meta_eccentricity": 0.00019138,
        "meta_inclination": 0.0214,
        "meta_ra_of_asc_node": 257.6289,
        "meta_arg_of_pericenter": 11.9169,
        "meta_mean_anomaly": 257.0556,
        "meta_ephemeris_type": 0,
        "meta_classification_type": "U",
        "meta_norad_cat_id": 54243,
        "meta_element_set_no": 999,
        "meta_rev_at_epoch": 522,
        "meta_bstar": 0,
        "meta_mean_motion_dot": 1.5e-07,
        "meta_mean_motion_ddot": 0,
        "tle_line1": "1 54243U 22153A   25342.58336517  .00000015  00000+0  00000+0 0  9999",
        "tle_line2": "2 54243   0.0214 257.6289 0001913  11.9169 257.0556  1.00271343  5227"
      },
      "geometry": {
        "type": "Point",
        "coordinates": [
          -49.49213673922061,
          0.004600928936390412
        ]
      }
    },
    {
      "type": "Feature",
      "properties": {
        "norad_id": 54244,
        "name": "GALAXY 32 (G-32)",
        "group": "intelsat",
        "lat": -0.0005947866783237938,
        "lon": -19.493776360102473,
        "alt_km": 35776.86043474094,
        "timestamp": "2025-12-08T23:34:03.637821+00:00",
        "meta_object_name": "GALAXY 32 (G-32)",
        "meta_object_id": "2022-153B",
        "meta_epoch": "2025-12-08T12:27:22.096800",
        "meta_mean_motion": 1.00270602,
        "meta_eccentricity": 0.00027139,
        "meta_inclination": 0.0093,
        "meta_ra_of_asc_node": 341.4541,
        "meta_arg_of_pericenter": 326.1977,
        "meta_mean_anomaly": 225.7141,
        "meta_ephemeris_type": 0,
        "meta_classification_type": "U",
        "meta_norad_cat_id": 54244,
        "meta_element_set_no": 999,
        "meta_rev_at_epoch": 1123,
        "meta_bstar": 0,
        "meta_mean_motion_dot": -1.72e-06,
        "meta_mean_motion_ddot": 0,
        "tle_line1": "1 54244U 22153B   25342.51900575 -.00000172  00000+0  00000+0 0  9999",
        "tle_line2": "2 54244   0.0093 341.4541 0002713 326.1977 225.7141  1.00270602 11230"
      },
      "geometry": {
        "type": "Point",
        "coordinates": [
          -19.493776360102473,
          -0.0005947866783237938
        ]
      }
    }
  ]
}